[
  {
    "COMMENT": "GENERATED VIA SPACETRACK.ORG API",
    "ORIGINATOR": "18 SPCS",
    "NORAD_CAT_ID": "27386",
    "OBJECT_NAME": "ENVISAT",
    "OBJECT_TYPE": "PAYLOAD",
    "CLASSIFICATION_TYPE": "U",
    "INTLDES": "02009A",
    "EPOCH": "2023-05-18 12:29:07",
    "EPOCH_MICROSECONDS": "446912",
    "MEAN_MOTION": "14.38342574",
    "ECCENTRICITY": "0.0001262",
    "INCLINATION": "98.2289",
    "RA_OF_ASC_NODE": "109.7449",
    "ARG_OF_PERICENTER": "86.9702",
    "MEAN_ANOMALY": "25.1013",
    "EPHEMERIS_TYPE": "0",
    "ELEMENT_SET_NO": "999",
    "REV_AT_EPOCH": "11169",
    "BSTAR": "0.00007567",
    "MEAN_MOTION_DOT": "0.00000189",
    "MEAN_MOTION_DDOT": "0",
    "FILE": "3911068",
    "TLE_LINE0": "0 ENVISAT",
    "TLE_LINE1": "1 27386U 02009A   23138.52022508  .00000189  00000-0  75670-4 0  9995",
    "TLE_LINE2": "2 27386  98.2289 109.7449 0001262  86.9702  25.1013 14.38342574111694",
    "OBJECT_ID": "2002-009A",
    "OBJECT_NUMBER": "27386",
    "SEMIMAJOR_AXIS": "7142.117",
    "PERIOD": "100.115",
    "APOGEE": "764.883",
    "PERIGEE": "763.081",
    "DECAYED": "0"
  },
  {
    "COMMENT": "GENERATED VIA SPACETRACK.ORG API",
    "ORIGINATOR": "18 SPCS",
    "NORAD_CAT_ID": "27386",
    "OBJECT_NAME": "ENVISAT",
    "OBJECT_TYPE": "PAYLOAD",
    "CLASSIFICATION_TYPE": "U",
    "INTLDES": "02009A",
    "EPOCH": "2023-05-18 12:29:07",
    "EPOCH_MICROSECONDS": "446912",
    "MEAN_MOTION": "14.38342574",
    "ECCENTRICITY": "0.0001262",
    "INCLINATION": "98.2289",
    "RA_OF_ASC_NODE": "109.7449",
    "ARG_OF_PERICENTER": "86.9702",
    "MEAN_ANOMALY": "25.1013",
    "EPHEMERIS_TYPE": "0",
    "ELEMENT_SET_NO": "999",
    "REV_AT_EPOCH": "11162",
    "BSTAR": "0.00007567",
    "MEAN_MOTION_DOT": "0.00000189",
    "MEAN_MOTION_DDOT": "0",
    "FILE": "3911221",
    "TLE_LINE0": "0 ENVISAT",
    "TLE_LINE1": "1 27386U 02009A   23138.52022508  .00000189  00000-0  75670-4 0  9995",
    "TLE_LINE2": "2 27386  98.2289 109.7449 0001262  86.9702  25.1013 14.38342574111627",
    "OBJECT_ID": "2002-009A",
    "OBJECT_NUMBER": "27386",
    "SEMIMAJOR_AXIS": "7142.117",
    "PERIOD": "100.115",
    "APOGEE": "764.883",
    "PERIGEE": "763.081",
    "DECAYED": "0"
  },
  {
    "COMMENT": "GENERATED VIA SPACETRACK.ORG API",
    "ORIGINATOR": "18 SPCS",
    "NORAD_CAT_ID": "27386",
    "OBJECT_NAME": "ENVISAT",
    "OBJECT_TYPE": "PAYLOAD",
    "CLASSIFICATION_TYPE": "U",
    "INTLDES": "02009A",
    "EPOCH": "2023-05-18 22:03:04",
    "EPOCH_MICROSECONDS": "817664",
    "MEAN_MOTION": "14.38342801",
    "ECCENTRICITY": "0.000126",
    "INCLINATION": "98.2289",
    "RA_OF_ASC_NODE": "110.127",
    "ARG_OF_PERICENTER": "87.2016",
    "MEAN_ANOMALY": "287.5351",
    "EPHEMERIS_TYPE": "0",
    "ELEMENT_SET_NO": "999",
    "REV_AT_EPOCH": "11168",
    "BSTAR": "0.000074942",
    "MEAN_MOTION_DOT": "0.00000187",
    "MEAN_MOTION_DDOT": "0",
    "FILE": "3911388",
    "TLE_LINE0": "0 ENVISAT",
    "TLE_LINE1": "1 27386U 02009A   23138.91880576  .00000187  00000-0  74942-4 0  9994",
    "TLE_LINE2": "2 27386  98.2289 110.1270 0001260  87.2016 287.5351 14.38342801111683",
    "OBJECT_ID": "2002-009A",
    "OBJECT_NUMBER": "27386",
    "SEMIMAJOR_AXIS": "7142.116",
    "PERIOD": "100.115",
    "APOGEE": "764.881",
    "PERIGEE": "763.081",
    "DECAYED": "0"
  },
  {
    "COMMENT": "GENERATED VIA SPACETRACK.ORG API",
    "ORIGINATOR": "18 SPCS",
    "NORAD_CAT_ID": "27386",
    "OBJECT_NAME": "ENVISAT",
    "OBJECT_TYPE": "PAYLOAD",
    "CLASSIFICATION_TYPE": "U",
    "INTLDES": "02009A",
    "EPOCH": "2023-05-19 04:42:47",
    "EPOCH_MICROSECONDS": "103264",
    "MEAN_MOTION": "14.3834297",
    "ECCENTRICITY": "0.000126",
    "INCLINATION": "98.229",
    "RA_OF_ASC_NODE": "110.3931",
    "ARG_OF_PERICENTER": "87.0766",
    "MEAN_ANOMALY": "284.1062",
    "EPHEMERIS_TYPE": "0",
    "ELEMENT_SET_NO": "999",
    "REV_AT_EPOCH": "11179",
    "BSTAR": "0.000076897",
    "MEAN_MOTION_DOT": "0.00000193",
    "MEAN_MOTION_DDOT": "0",
    "FILE": "3911538",
    "TLE_LINE0": "0 ENVISAT",
    "TLE_LINE1": "1 27386U 02009A   23139.19637851  .00000193  00000-0  76897-4 0  9999",
    "TLE_LINE2": "2 27386  98.2290 110.3931 0001260  87.0766 284.1062 14.38342970111792",
    "OBJECT_ID": "2002-009A",
    "OBJECT_NUMBER": "27386",
    "SEMIMAJOR_AXIS": "7142.116",
    "PERIOD": "100.115",
    "APOGEE": "764.880",
    "PERIGEE": "763.081",
    "DECAYED": "0"
  },
  {
    "COMMENT": "GENERATED VIA SPACETRACK.ORG API",
    "ORIGINATOR": "18 SPCS",
    "NORAD_CAT_ID": "27386",
    "OBJECT_NAME": "ENVISAT",
    "OBJECT_TYPE": "PAYLOAD",
    "CLASSIFICATION_TYPE": "U",
    "INTLDES": "02009A",
    "EPOCH": "2023-05-19 10:23:00",
    "EPOCH_MICROSECONDS": "246336",
    "MEAN_MOTION": "14.38343126",
    "ECCENTRICITY": "0.0001265",
    "INCLINATION": "98.229",
    "RA_OF_ASC_NODE": "110.6196",
    "ARG_OF_PERICENTER": "87.2896",
    "MEAN_ANOMALY": "66.5618",
    "EPHEMERIS_TYPE": "0",
    "ELEMENT_SET_NO": "999",
    "REV_AT_EPOCH": "11182",
    "BSTAR": "0.000076806",
    "MEAN_MOTION_DOT": "0.00000192",
    "MEAN_MOTION_DDOT": "0",
    "FILE": "3911862",
    "TLE_LINE0": "0 ENVISAT",
    "TLE_LINE1": "1 27386U 02009A   23139.43264174  .00000192  00000-0  76806-4 0  9999",
    "TLE_LINE2": "2 27386  98.2290 110.6196 0001265  87.2896  66.5618 14.38343126111826",
    "OBJECT_ID": "2002-009A",
    "OBJECT_NUMBER": "27386",
    "SEMIMAJOR_AXIS": "7142.115",
    "PERIOD": "100.115",
    "APOGEE": "764.883",
    "PERIGEE": "763.077",
    "DECAYED": "0"
  },
  {
    "COMMENT": "GENERATED VIA SPACETRACK.ORG API",
    "ORIGINATOR": "18 SPCS",
    "NORAD_CAT_ID": "27386",
    "OBJECT_NAME": "ENVISAT",
    "OBJECT_TYPE": "PAYLOAD",
    "CLASSIFICATION_TYPE": "U",
    "INTLDES": "02009A",
    "EPOCH": "2023-05-19 17:09:06",
    "EPOCH_MICROSECONDS": "346656",
    "MEAN_MOTION": "14.3834323",
    "ECCENTRICITY": "0.0001254",
    "INCLINATION": "98.2291",
    "RA_OF_ASC_NODE": "110.89",
    "ARG_OF_PERICENTER": "87.0801",
    "MEAN_ANOMALY": "86.2068",
    "EPHEMERIS_TYPE": "0",
    "ELEMENT_SET_NO": "999",
    "REV_AT_EPOCH": "11186",
    "BSTAR": "0.000075974",
    "MEAN_MOTION_DOT": "0.0000019",
    "MEAN_MOTION_DDOT": "0",
    "FILE": "3912096",
    "TLE_LINE0": "0 ENVISAT",
    "TLE_LINE1": "1 27386U 02009A   23139.71465679  .00000190  00000-0  75974-4 0  9996",
    "TLE_LINE2": "2 27386  98.2291 110.8900 0001254  87.0801  86.2068 14.38343230111862",
    "OBJECT_ID": "2002-009A",
    "OBJECT_NUMBER": "27386",
    "SEMIMAJOR_AXIS": "7142.115",
    "PERIOD": "100.115",
    "APOGEE": "764.875",
    "PERIGEE": "763.084",
    "DECAYED": "0"
  },
  {
    "COMMENT": "GENERATED VIA SPACETRACK.ORG API",
    "ORIGINATOR": "18 SPCS",
    "NORAD_CAT_ID": "27386",
    "OBJECT_NAME": "ENVISAT",
    "OBJECT_TYPE": "PAYLOAD",
    "CLASSIFICATION_TYPE": "U",
    "INTLDES": "02009A",
    "EPOCH": "2023-05-19 21:36:24",
    "EPOCH_MICROSECONDS": "844320",
    "MEAN_MOTION": "14.38343382",
    "ECCENTRICITY": "0.0001246",
    "INCLINATION": "98.2291",
    "RA_OF_ASC_NODE": "111.068",
    "ARG_OF_PERICENTER": "86.907",
    "MEAN_ANOMALY": "327.0243",
    "EPHEMERIS_TYPE": "0",
    "ELEMENT_SET_NO": "999",
    "REV_AT_EPOCH": "11182",
    "BSTAR": "0.00007743",
    "MEAN_MOTION_DOT": "0.00000194",
    "MEAN_MOTION_DDOT": "0",
    "FILE": "3912278",
    "TLE_LINE0": "0 ENVISAT",
    "TLE_LINE1": "1 27386U 02009A   23139.90028755  .00000194  00000-0  77430-4 0  9990",
    "TLE_LINE2": "2 27386  98.2291 111.0680 0001246  86.9070 327.0243 14.38343382111822",
    "OBJECT_ID": "2002-009A",
    "OBJECT_NUMBER": "27386",
    "SEMIMAJOR_AXIS": "7142.114",
    "PERIOD": "100.115",
    "APOGEE": "764.869",
    "PERIGEE": "763.089",
    "DECAYED": "0"
  },
  {
    "COMMENT": "GENERATED VIA SPACETRACK.ORG API",
    "ORIGINATOR": "18 SPCS",
    "NORAD_CAT_ID": "27386",
    "OBJECT_NAME": "ENVISAT",
    "OBJECT_TYPE": "PAYLOAD",
    "CLASSIFICATION_TYPE": "U",
    "INTLDES": "02009A",
    "EPOCH": "2023-05-20 04:05:06",
    "EPOCH_MICROSECONDS": "423072",
    "MEAN_MOTION": "14.38343816",
    "ECCENTRICITY": "0.0001247",
    "INCLINATION": "98.2292",
    "RA_OF_ASC_NODE": "111.3268",
    "ARG_OF_PERICENTER": "87.0074",
    "MEAN_ANOMALY": "283.7974",
    "EPHEMERIS_TYPE": "0",
    "ELEMENT_SET_NO": "999",
    "REV_AT_EPOCH": "11193",
    "BSTAR": "0.000094192",
    "MEAN_MOTION_DOT": "0.00000245",
    "MEAN_MOTION_DDOT": "0",
    "FILE": "3912474",
    "TLE_LINE0": "0 ENVISAT",
    "TLE_LINE1": "1 27386U 02009A   23140.17021323  .00000245  00000-0  94192-4 0  9996",
    "TLE_LINE2": "2 27386  98.2292 111.3268 0001247  87.0074 283.7974 14.38343816111938",
    "OBJECT_ID": "2002-009A",
    "OBJECT_NUMBER": "27386",
    "SEMIMAJOR_AXIS": "7142.113",
    "PERIOD": "100.115",
    "APOGEE": "764.868",
    "PERIGEE": "763.087",
    "DECAYED": "0"
  },
  {
    "COMMENT": "GENERATED VIA SPACETRACK.ORG API",
    "ORIGINATOR": "18 SPCS",
    "NORAD_CAT_ID": "27386",
    "OBJECT_NAME": "ENVISAT",
    "OBJECT_TYPE": "PAYLOAD",
    "CLASSIFICATION_TYPE": "U",
    "INTLDES": "02009A",
    "EPOCH": "2023-05-20 11:13:16",
    "EPOCH_MICROSECONDS": "624992",
    "MEAN_MOTION": "14.3834403",
    "ECCENTRICITY": "0.0001252",
    "INCLINATION": "98.2292",
    "RA_OF_ASC_NODE": "111.6118",
    "ARG_OF_PERICENTER": "87.1162",
    "MEAN_ANOMALY": "22.4336",
    "EPHEMERIS_TYPE": "0",
    "ELEMENT_SET_NO": "999",
    "REV_AT_EPOCH": "11197",
    "BSTAR": "0.000095555",
    "MEAN_MOTION_DOT": "0.0000025",
    "MEAN_MOTION_DDOT": "0",
    "FILE": "3912703",
    "TLE_LINE0": "0 ENVISAT",
    "TLE_LINE1": "1 27386U 02009A   23140.46755353  .00000250  00000-0  95555-4 0  9995",
    "TLE_LINE2": "2 27386  98.2292 111.6118 0001252  87.1162  22.4336 14.38344030111973",
    "OBJECT_ID": "2002-009A",
    "OBJECT_NUMBER": "27386",
    "SEMIMAJOR_AXIS": "7142.112",
    "PERIOD": "100.115",
    "APOGEE": "764.871",
    "PERIGEE": "763.083",
    "DECAYED": "0"
  }
]